{"type": "FeatureCollection", "features": [ {"type": "Feature", "properties": {"norad_id": 31286, "name": "FENGYUN 1C DEB", "group": "fengyun-1c-debris", "lat": 78.70058780342774, "lon": -179.75280660093185, "alt_km": 859.7733883106102, "timestamp": "2025-12-26T08:37:54.861853+00:00", "meta": {"OBJECT_NAME": "FENGYUN 1C DEB", "OBJECT_ID": "1999-025BNU", "EPOCH": "2025-12-24T10:39:17.716320", "MEAN_MOTION": 14.22891604, "ECCENTRICITY": 0.00786424, "INCLINATION": 100.8587, "RA_OF_ASC_NODE": 251.7618, "ARG_OF_PERICENTER": 248.2654, "MEAN_ANOMALY": 111.0132, "EPHEMERIS_TYPE": 0, "CLASSIFICATION_TYPE": "U", "NORAD_CAT_ID": 31286, "ELEMENT_SET_NO": 999, "REV_AT_EPOCH": 64186, "BSTAR": 0.0027763524, "MEAN_MOTION_DOT": 6.385e-05, "MEAN_MOTION_DDOT": 0}, "tle": {"line1": "1 31286U 99025BNU 25358.44395505  .00006385  00000+0  27764-2 0  9992", "line2": "2 31286 100.8587 251.7618 0078642 248.2654 111.0132 14.22891604641860"}}, "geometry": {"type": "Point", "coordinates": [-179.75280660093185, 78.70058780342774]}}, {"type": "Feature", "properties": {"norad_id": 31287, "name": "FENGYUN 1C DEB", "group": "fengyun-1c-debris", "lat": 31.890834242758245, "lon": 51.42413782354214, "alt_km": 776.8260670331774, "timestamp": "2025-12-26T08:37:54.861863+00:00", "meta": {"OBJECT_NAME": "FENGYUN 1C DEB", "OBJECT_ID": "1999-025BNV", "EPOCH": "2025-12-17T09:14:55.199040", "MEAN_MOTION": 14.280549, "ECCENTRICITY": 0.0027206, "INCLINATION": 99.41, "RA_OF_ASC_NODE": 47.6846, "ARG_OF_PERICENTER": 50.1324, "MEAN_ANOMALY": 310.2241, "EPHEMERIS_TYPE": 0, "CLASSIFICATION_TYPE": "U", "NORAD_CAT_ID": 31287, "ELEMENT_SET_NO": 999, "REV_AT_EPOCH": 96752, "BSTAR": 0.0011667317, "MEAN_MOTION_DOT": 2.86e-05, "MEAN_MOTION_DDOT": 0}, "tle": {"line1": "1 31287U 99025BNV 25351.38536110  .00002860  00000+0  11667-2 0  9997", "line2": "2 31287  99.4100  47.6846 0027206  50.1324 310.2241 14.28054900967528"}}, "geometry": {"type": "Point", "coordinates": [51.42413782354214, 31.890834242758245]}}, {"type": "Feature", "properties": {"norad_id": 31288, "name": "FENGYUN 1C DEB", "group": "fengyun-1c-debris", "lat": -77.84590667916238, "lon": -154.3746766832737, "alt_km": 567.7789120450516, "timestamp": "2025-12-26T08:37:54.861874+00:00", "meta": {"OBJECT_NAME": "FENGYUN 1C DEB", "OBJECT_ID": "1999-025BNW", "EPOCH": "2025-12-25T22:26:34.632384", "MEAN_MOTION": 14.97229146, "ECCENTRICITY": 0.00227747, "INCLINATION": 98.7454, "RA_OF_ASC_NODE": 159.527, "ARG_OF_PERICENTER": 259.3147, "MEAN_ANOMALY": 252.1419, "EPHEMERIS_TYPE": 0, "CLASSIFICATION_TYPE": "U", "NORAD_CAT_ID": 31288, "ELEMENT_SET_NO": 999, "REV_AT_EPOCH": 97754, "BSTAR": 0.0055631285, "MEAN_MOTION_DOT": 0.00065231, "MEAN_MOTION_DDOT": 0}, "tle": {"line1": "1 31288U 99025BNW 25359.93512306  .00065231  00000+0  55631-2 0  9998", "line2": "2 31288  98.7454 159.5270 0022774 259.3147 252.1419 14.97229146977544"}}, "geometry": {"type": "Point", "coordinates": [-154.3746766832737, -77.84590667916238]}}, {"type": "Feature", "properties": {"norad_id": 31293, "name": "FENGYUN 1C DEB", "group": "fengyun-1c-debris", "lat": -46.16290009469106, "lon": 178.82404460970636, "alt_km": 712.1534929469135, "timestamp": "2025-12-26T08:37:54.861884+00:00", "meta": {"OBJECT_NAME": "FENGYUN 1C DEB", "OBJECT_ID": "1999-025BPB", "EPOCH": "2025-12-22T06:13:51.554208", "MEAN_MOTION": 14.30816344, "ECCENTRICITY": 0.01257922, "INCLINATION": 98.4224, "RA_OF_ASC_NODE": 3.727, "ARG_OF_PERICENTER": 216.5399, "MEAN_ANOMALY": 142.7154, "EPHEMERIS_TYPE": 0, "CLASSIFICATION_TYPE": "U", "NORAD_CAT_ID": 31293, "ELEMENT_SET_NO": 999, "REV_AT_EPOCH": 65380, "BSTAR": 6.4145544e-05, "MEAN_MOTION_DOT": 1.39e-06, "MEAN_MOTION_DDOT": 0}, "tle": {"line1": "1 31293U 99025BPB 25356.25962447  .00000139  00000+0  64146-4 0  9990", "line2": "2 31293  98.4224   3.7270 0125792 216.5399 142.7154 14.30816344653809"}}, "geometry": {"type": "Point", "coordinates": [178.82404460970636, -46.16290009469106]}}, {"type": "Feature", "properties": {"norad_id": 31294, "name": "FENGYUN 1C DEB", "group": "fengyun-1c-debris", "lat": -68.72770948868244, "lon": 152.68890794192856, "alt_km": 803.2670318119299, "timestamp": "2025-12-26T08:37:54.861894+00:00", "meta": {"OBJECT_NAME": "FENGYUN 1C DEB", "OBJECT_ID": "1999-025BPC", "EPOCH": "2025-12-25T22:57:37.291104", "MEAN_MOTION": 14.15338572, "ECCENTRICITY": 0.00990773, "INCLINATION": 98.5439, "RA_OF_ASC_NODE": 355.0165, "ARG_OF_PERICENTER": 302.8872, "MEAN_ANOMALY": 56.2798, "EPHEMERIS_TYPE": 0, "CLASSIFICATION_TYPE": "U", "NORAD_CAT_ID": 31294, "ELEMENT_SET_NO": 999, "REV_AT_EPOCH": 97040, "BSTAR": 0.00048177256, "MEAN_MOTION_DOT": 9.41e-06, "MEAN_MOTION_DDOT": 0}, "tle": {"line1": "1 31294U 99025BPC 25359.95668161  .00000941  00000+0  48177-3 0  9993", "line2": "2 31294  98.5439 355.0165 0099077 302.8872  56.2798 14.15338572970402"}}, "geometry": {"type": "Point", "coordinates": [152.68890794192856, -68.72770948868244]}}, {"type": "Feature", "properties": {"norad_id": 31295, "name": "FENGYUN 1C DEB", "group": "fengyun-1c-debris", "lat": 12.210598693559648, "lon": -177.81137759067525, "alt_km": 958.7356778927378, "timestamp": "2025-12-26T08:37:54.861904+00:00", "meta": {"OBJECT_NAME": "FENGYUN 1C DEB", "OBJECT_ID": "1999-025BPD", "EPOCH": "2025-12-25T11:56:32.906976", "MEAN_MOTION": 13.96834303, "ECCENTRICITY": 0.0077253, "INCLINATION": 98.3163, "RA_OF_ASC_NODE": 183.2226, "ARG_OF_PERICENTER": 215.0084, "MEAN_ANOMALY": 144.5989, "EPHEMERIS_TYPE": 0, "CLASSIFICATION_TYPE": "U", "NORAD_CAT_ID": 31295, "ELEMENT_SET_NO": 999, "REV_AT_EPOCH": 95681, "BSTAR": 0.00010445, "MEAN_MOTION_DOT": 1.11e-06, "MEAN_MOTION_DDOT": 0}, "tle": {"line1": "1 31295U 99025BPD 25359.49760309  .00000111  00000+0  10445-3 0  9996", "line2": "2 31295  98.3163 183.2226 0077253 215.0084 144.5989 13.96834303956819"}}, "geometry": {"type": "Point", "coordinates": [-177.81137759067525, 12.210598693559648]}}, {"type": "Feature", "properties": {"norad_id": 31296, "name": "FENGYUN 1C DEB", "group": "fengyun-1c-debris", "lat": -65.31150341301573, "lon": 76.47822467928779, "alt_km": 658.768575125875, "timestamp": "2025-12-26T08:37:54.861914+00:00", "meta": {"OBJECT_NAME": "FENGYUN 1C DEB", "OBJECT_ID": "1999-025BPE", "EPOCH": "2025-12-24T17:59:42.169632", "MEAN_MOTION": 14.72040525, "ECCENTRICITY": 0.00199479, "INCLINATION": 99.0666, "RA_OF_ASC_NODE": 275.0111, "ARG_OF_PERICENTER": 172.8681, "MEAN_ANOMALY": 187.2811, "EPHEMERIS_TYPE": 0, "CLASSIFICATION_TYPE": "U", "NORAD_CAT_ID": 31296, "ELEMENT_SET_NO": 999, "REV_AT_EPOCH": 97526, "BSTAR": 0.0042877681, "MEAN_MOTION_DOT": 0.00027065, "MEAN_MOTION_DDOT": 0}, "tle": {"line1": "1 31296U 99025BPE 25358.74979363  .00027065  00000+0  42878-2 0  9997", "line2": "2 31296  99.0666 275.0111 0019947 172.8681 187.2811 14.72040525975266"}}, "geometry": {"type": "Point", "coordinates": [76.47822467928779, -65.31150341301573]}}, {"type": "Feature", "properties": {"norad_id": 31297, "name": "FENGYUN 1C DEB", "group": "fengyun-1c-debris", "lat": 1.631849555833078, "lon": 137.9806340576902, "alt_km": 686.5403560898794, "timestamp": "2025-12-26T08:37:54.861924+00:00", "meta": {"OBJECT_NAME": "FENGYUN 1C DEB", "OBJECT_ID": "1999-025BPF", "EPOCH": "2025-12-24T21:02:44.662848", "MEAN_MOTION": 14.5712054, "ECCENTRICITY": 0.0139723, "INCLINATION": 98.9349, "RA_OF_ASC_NODE": 136.6475, "ARG_OF_PERICENTER": 86.1849, "MEAN_ANOMALY": 63.6545, "EPHEMERIS_TYPE": 0, "CLASSIFICATION_TYPE": "U", "NORAD_CAT_ID": 31297, "ELEMENT_SET_NO": 999, "REV_AT_EPOCH": 99492, "BSTAR": 0.00030781, "MEAN_MOTION_DOT": 1.526e-05, "MEAN_MOTION_DDOT": 0}, "tle": {"line1": "1 31297U 99025BPF 25358.87690582  .00001526  00000+0  30781-3 0  9990", "line2": "2 31297  98.9349 136.6475 0139723  86.1849  63.6545 14.57120540994920"}}, "geometry": {"type": "Point", "coordinates": [137.9806340576902, 1.631849555833078]}}, {"type": "Feature", "properties": {"norad_id": 31300, "name": "FENGYUN 1C DEB", "group": "fengyun-1c-debris", "lat": 51.27024377659039, "lon": 68.54341184106757, "alt_km": 799.79689174547, "timestamp": "2025-12-26T08:37:54.861938+00:00", "meta": {"OBJECT_NAME": "FENGYUN 1C DEB", "OBJECT_ID": "1999-025BPJ", "EPOCH": "2025-12-24T03:55:34.777344", "MEAN_MOTION": 14.15175512, "ECCENTRICITY": 0.00596051, "INCLINATION": 99.5418, "RA_OF_ASC_NODE": 78.3024, "ARG_OF_PERICENTER": 27.7619, "MEAN_ANOMALY": 2.1678, "EPHEMERIS_TYPE": 0, "CLASSIFICATION_TYPE": "U", "NORAD_CAT_ID": 31300, "ELEMENT_SET_NO": 999, "REV_AT_EPOCH": 96336, "BSTAR": 0.0012461369, "MEAN_MOTION_DOT": 2.412e-05, "MEAN_MOTION_DDOT": 0}, "tle": {"line1": "1 31300U 99025BPJ 25358.16359696  .00002412  00000+0  12461-2 0  9994", "line2": "2 31300  99.5418  78.3024 0059605  27.7619   2.1678 14.15175512963369"}}, "geometry": {"type": "Point", "coordinates": [68.54341184106757, 51.27024377659039]}}, {"type": "Feature", "properties": {"norad_id": 31302, "name": "FENGYUN 1C DEB", "group": "fengyun-1c-debris", "lat": 40.03926970624381, "lon": -128.54988874386243, "alt_km": 807.005198299832, "timestamp": "2025-12-26T08:37:54.861949+00:00", "meta": {"OBJECT_NAME": "FENGYUN 1C DEB", "OBJECT_ID": "1999-025BPL", "EPOCH": "2025-12-19T15:12:58.171104", "MEAN_MOTION": 14.27574345, "ECCENTRICITY": 0.002659, "INCLINATION": 99.4129, "RA_OF_ASC_NODE": 36.2, "ARG_OF_PERICENTER": 35.1141, "MEAN_ANOMALY": 117.7071, "EPHEMERIS_TYPE": 0, "CLASSIFICATION_TYPE": "U", "NORAD_CAT_ID": 31302, "ELEMENT_SET_NO": 999, "REV_AT_EPOCH": 96456, "BSTAR": 0.00096178, "MEAN_MOTION_DOT": 2.325e-05, "MEAN_MOTION_DDOT": 0}, "tle": {"line1": "1 31302U 99025BPL 25353.63400661  .00002325  00000+0  96178-3 0  9993", "line2": "2 31302  99.4129  36.2000 0026590  35.1141 117.7071 14.27574345964569"}}, "geometry": {"type": "Point", "coordinates": [-128.54988874386243, 40.03926970624381]}}]}